ONEWEB-0410             
1 51622U 22012A   26198.97141702  .00000008  00000+0 -13240-4 0  9992
2 51622  87.9160 359.7359 0001577  48.9410 311.1858 13.17650466217754
ONEWEB-0411             
1 51623U 22012B   26199.09083008 -.00000557  00000+0 -16318-2 0  9998
2 51623  87.8822  30.1096 0002337  94.9455 265.1939 13.10373874213338
ONEWEB-0415             
1 51624U 22012C   26199.08743497 -.00000411  00000+0 -12140-2 0  9991
2 51624  87.8818  30.1079 0002134  87.0884 273.0487 13.10370291213335
ONEWEB-0416             
1 51625U 22012D   26199.09931434 -.00000596  00000+0 -17436-2 0  9990
2 51625  87.8813  30.1221 0002154  83.7050 276.4323 13.10375402213379
ONEWEB-0422             
1 51626U 22012E   26198.98154427  .00000089  00000+0  19634-3 0  9995
2 51626  87.9159 359.7341 0001986 113.6290 246.5050 13.17648504217864
ONEWEB-0423             
1 51627U 22012F   26199.20260876 -.00000002  00000+0 -39476-4 0  9992
2 51627  87.9150 359.6937 0001779  94.3400 265.7935 13.17648238217784
ONEWEB-0425             
1 51628U 22012G   26199.26215289  .00001350  00000+0  38285-2 0  9997
2 51628  87.8813  30.0750 0001851  73.4808 286.6523 13.10409105213393
ONEWEB-0428             
1 51629U 22012H   26199.24184361 -.00000419  00000+0 -12366-2 0  9991
2 51629  87.8811  30.0844 0001802  88.6192 271.5142 13.10373407213357
ONEWEB-0431             
1 51630U 22012J   26199.05846162  .00000648  00000+0  18187-2 0  9995
2 51630  87.8818  30.1138 0002421  95.4620 264.6783 13.10373111213382
ONEWEB-0434             
1 51631U 22012K   26199.03668450 -.00000158  00000+0 -48959-3 0  9995
2 51631  87.8824  30.1447 0001482  69.3157 290.8129 13.10377666213366
ONEWEB-0435             
1 51632U 22012L   26199.04332623  .00000193  00000+0  51702-3 0  9994
2 51632  87.8817  30.1268 0001918  97.9695 262.1650 13.10379831213354
ONEWEB-0436             
1 51633U 22012M   26198.96635994  .00000079  00000+0  16952-3 0  9993
2 51633  87.9155 359.7246 0001939  99.3524 260.7827 13.17647562217739
ONEWEB-0438             
1 51634U 22012N   26199.25710797 -.00000720  00000+0 -20989-2 0  9991
2 51634  87.8815  30.0885 0001781  81.1733 278.9596 13.10374898213413
ONEWEB-0439             
1 51635U 22012P   26199.26051275 -.00000508  00000+0 -14920-2 0  9994
2 51635  87.8819  30.0752 0001746  86.8606 273.2721 13.10376471213397
ONEWEB-0442             
1 51636U 22012Q   26199.18657920 -.00000014  00000+0 -70344-4 0  9991
2 51636  87.9147 359.7112 0001643  75.0759 285.0554 13.17650549217756
ONEWEB-0443             
1 51637U 22012R   26198.97817037 -.00000017  00000+0 -77773-4 0  9991
2 51637  87.9149 359.7535 0001544  99.7378 260.3928 13.17647850217772
ONEWEB-0444             
1 51638U 22012S   26199.25032340 -.00000637  00000+0 -18599-2 0  9997
2 51638  87.8819  30.0759 0001656  91.6112 268.5205 13.10371831213404
ONEWEB-0445             
1 51639U 22012T   26199.04161626  .00000118  00000+0  30284-3 0  9993
2 51639  87.8826  30.1077 0001915  86.0064 274.1282 13.10379683213387
ONEWEB-0446             
1 51640U 22012U   26199.24862400 -.00000616  00000+0 -18024-2 0  9997
2 51640  87.8815  30.0933 0002099  82.1971 277.9395 13.10371516213399
ONEWEB-0448             
1 51641U 22012V   26199.02464228 -.00000758  00000+0 -22085-2 0  9999
2 51641  87.8814  30.1333 0001794  88.6579 271.4754 13.10374408213335
ONEWEB-0449             
1 51642U 22012W   26199.02973557 -.00000620  00000+0 -18115-2 0  9997
2 51642  87.8822  30.1198 0001793  69.0449 291.0870 13.10375076213342
ONEWEB-0451             
1 51643U 22012X   26199.19078531 -.00000190  00000+0 -52274-3 0  9991
2 51643  87.9158 359.6784 0001680  89.7457 270.3867 13.17649270217740
ONEWEB-0452             
1 51644U 22012Y   26199.18910753 -.00000051  00000+0 -16426-3 0  9997
2 51644  87.9147 359.7127 0001579  93.1888 266.9424 13.17647021217758
ONEWEB-0456             
1 51646U 22012AA  26199.26728986 -.00000201  00000+0 -61077-3 0  9992
2 51646  87.8832  30.0618 0001828  92.7700 267.3637 13.10375074213418
ONEWEB-0457             
1 51647U 22012AB  26199.24509777 -.00000525  00000+0 -15398-2 0  9999
2 51647  87.8815  30.0813 0002056  78.7458 281.3901 13.10371587213410
ONEWEB-0458             
1 51648U 22012AC  26199.26645344 -.00000244  00000+0 -73633-3 0  9998
2 51648  87.8823  30.0657 0001623  87.5580 272.5733 13.10376165213376
ONEWEB-0461             
1 51649U 22012AD  26199.05916851 -.00000002  00000+0 -38800-4 0  9990
2 51649  87.9160 359.7180 0001923  90.3271 269.8081 13.17650690217954
ONEWEB-0463             
1 51650U 22012AE  26198.96466830  .00000009  00000+0 -96588-5 0  9992
2 51650  87.9147 359.7565 0001969  90.3209 269.8148 13.17650512217721
ONEWEB-0464             
1 51651U 22012AF  26199.03483980 -.00000239  00000+0 -72165-3 0  9996
2 51651  87.8816  30.1328 0001616  95.2991 264.8321 13.10375658213364
ONEWEB-0468             
1 51652U 22012AG  26199.03991924  .00000032  00000+0  55192-4 0  9990
2 51652  87.8816  30.1249 0001712  95.3244 264.8079 13.10375407213346
