OBJECT_NAME,OBJECT_ID,EPOCH,MEAN_MOTION,ECCENTRICITY,INCLINATION,RA_OF_ASC_NODE,ARG_OF_PERICENTER,MEAN_ANOMALY,EPHEMERIS_TYPE,CLASSIFICATION_TYPE,NORAD_CAT_ID,ELEMENT_SET_NO,REV_AT_EPOCH,BSTAR,MEAN_MOTION_DOT,MEAN_MOTION_DDOT
ONEWEB-0410,2022-012A,2026-07-17T23:18:50.430528,13.17650466,.00015778,87.9160,359.7359,48.9410,311.1858,0,U,51622,999,21775,-.13240238E-4,.8E-7,0
ONEWEB-0411,2022-012B,2026-07-18T02:10:47.718912,13.10373874,.00023377,87.8822,30.1096,94.9455,265.1939,0,U,51623,999,21333,-.16318473E-2,-.557E-5,0
ONEWEB-0415,2022-012C,2026-07-18T02:05:54.381408,13.10370291,.00021344,87.8818,30.1079,87.0884,273.0487,0,U,51624,999,21333,-.12139737E-2,-.411E-5,0
ONEWEB-0416,2022-012D,2026-07-18T02:23:00.758976,13.10375402,.0002154,87.8813,30.1221,83.7050,276.4323,0,U,51625,999,21337,-.17436374E-2,-.596E-5,0
ONEWEB-0422,2022-012E,2026-07-17T23:33:25.424928,13.17648504,.00019863,87.9159,359.7341,113.6290,246.5050,0,U,51626,999,21786,.19633552E-3,.89E-6,0
ONEWEB-0423,2022-012F,2026-07-18T04:51:45.396864,13.17648238,.00017796,87.9150,359.6937,94.3400,265.7935,0,U,51627,999,21778,-.39476448E-4,-.2E-7,0
ONEWEB-0425,2022-012G,2026-07-18T06:17:30.009696,13.10409105,.00018518,87.8813,30.0750,73.4808,286.6523,0,U,51628,999,21339,.38285425E-2,.135E-4,0
ONEWEB-0428,2022-012H,2026-07-18T05:48:15.287904,13.10373407,.00018027,87.8811,30.0844,88.6192,271.5142,0,U,51629,999,21335,-.12365622E-2,-.419E-5,0
ONEWEB-0431,2022-012J,2026-07-18T01:24:11.083968,13.10373111,.0002421,87.8818,30.1138,95.4620,264.6783,0,U,51630,999,21338,.18187413E-2,.648E-5,0
ONEWEB-0434,2022-012K,2026-07-18T00:52:49.540800,13.10377666,.00014827,87.8824,30.1447,69.3157,290.8129,0,U,51631,999,21336,-.48958724E-3,-.158E-5,0
ONEWEB-0435,2022-012L,2026-07-18T01:02:23.386272,13.10379831,.00019182,87.8817,30.1268,97.9695,262.1650,0,U,51632,999,21335,.517018E-3,.193E-5,0
ONEWEB-0436,2022-012M,2026-07-17T23:11:33.498816,13.17647562,.0001939,87.9155,359.7246,99.3524,260.7827,0,U,51633,999,21773,.16951966E-3,.79E-6,0
ONEWEB-0438,2022-012N,2026-07-18T06:10:14.128608,13.10374898,.0001781,87.8815,30.0885,81.1733,278.9596,0,U,51634,999,21341,-.20988716E-2,-.72E-5,0
ONEWEB-0439,2022-012P,2026-07-18T06:15:08.301600,13.10376471,.0001746,87.8819,30.0752,86.8606,273.2721,0,U,51635,999,21339,-.14920186E-2,-.508E-5,0
ONEWEB-0442,2022-012Q,2026-07-18T04:28:40.442880,13.17650549,.0001643,87.9147,359.7112,75.0759,285.0554,0,U,51636,999,21775,-.70343777E-4,-.14E-6,0
ONEWEB-0443,2022-012R,2026-07-17T23:28:33.919968,13.17647850,.00015443,87.9149,359.7535,99.7378,260.3928,0,U,51637,999,21777,-.77772508E-4,-.17E-6,0
ONEWEB-0444,2022-012S,2026-07-18T06:00:27.941760,13.10371831,.00016569,87.8819,30.0759,91.6112,268.5205,0,U,51638,999,21340,-.18598798E-2,-.637E-5,0
ONEWEB-0445,2022-012T,2026-07-18T00:59:55.644864,13.10379683,.00019153,87.8826,30.1077,86.0064,274.1282,0,U,51639,999,21338,.30283865E-3,.118E-5,0
ONEWEB-0446,2022-012U,2026-07-18T05:58:01.113600,13.10371516,.00020998,87.8815,30.0933,82.1971,277.9395,0,U,51640,999,21339,-.18024475E-2,-.616E-5,0
ONEWEB-0448,2022-012V,2026-07-18T00:35:29.092992,13.10374408,.00017947,87.8814,30.1333,88.6579,271.4754,0,U,51641,999,21333,-.22085158E-2,-.758E-5,0
ONEWEB-0449,2022-012W,2026-07-18T00:42:49.153248,13.10375076,.00017934,87.8822,30.1198,69.0449,291.0870,0,U,51642,999,21334,-.18115076E-2,-.62E-5,0
ONEWEB-0451,2022-012X,2026-07-18T04:34:43.850784,13.17649270,.00016805,87.9158,359.6784,89.7457,270.3867,0,U,51643,999,21774,-.52274085E-3,-.19E-5,0
ONEWEB-0452,2022-012Y,2026-07-18T04:32:18.890592,13.17647021,.0001579,87.9147,359.7127,93.1888,266.9424,0,U,51644,999,21775,-.16425854E-3,-.51E-6,0
ONEWEB-0456,2022-012AA,2026-07-18T06:24:53.843904,13.10375074,.00018287,87.8832,30.0618,92.7700,267.3637,0,U,51646,999,21341,-.61077089E-3,-.201E-5,0
ONEWEB-0457,2022-012AB,2026-07-18T05:52:56.447328,13.10371587,.0002056,87.8815,30.0813,78.7458,281.3901,0,U,51647,999,21341,-.15397706E-2,-.525E-5,0
ONEWEB-0458,2022-012AC,2026-07-18T06:23:41.577216,13.10376165,.00016233,87.8823,30.0657,87.5580,272.5733,0,U,51648,999,21337,-.73632663E-3,-.244E-5,0
ONEWEB-0461,2022-012AD,2026-07-18T01:25:12.159264,13.17650690,.00019233,87.9160,359.7180,90.3271,269.8081,0,U,51649,999,21795,-.38799813E-4,-.2E-7,0
ONEWEB-0463,2022-012AE,2026-07-17T23:09:07.341120,13.17650512,.00019691,87.9147,359.7565,90.3209,269.8148,0,U,51650,999,21772,-.9658763E-5,.9E-7,0
ONEWEB-0464,2022-012AF,2026-07-18T00:50:10.158720,13.10375658,.00016163,87.8816,30.1328,95.2991,264.8321,0,U,51651,999,21336,-.72165001E-3,-.239E-5,0
ONEWEB-0468,2022-012AG,2026-07-18T00:57:29.022336,13.10375407,.00017124,87.8816,30.1249,95.3244,264.8079,0,U,51652,999,21334,.55192476E-4,.32E-6,0
